start=new Date('2022-09-14T00:00:00.000Z').valueOf();
sats=[{"MEAN_MOTION":"15.06399420","SEMIMAJOR_AXIS":"6925.350","OBJECT_NAME":"STARLINK-2092","BSTAR":"0.00003450000000","REF_FRAME":"TEME","DECAY_DATE":null,"TIME_SYSTEM":"UTC","ECCENTRICITY":"0.00013870","ELEMENT_SET_NO":"999","ARG_OF_PERICENTER":"72.5665","REV_AT_EPOCH":"9118","PERIAPSIS":"546.255","RCS_SIZE":"LARGE","MEAN_ELEMENT_THEORY":"SGP4","MEAN_ANOMALY":"287.5476","CLASSIFICATION_TYPE":"U","RA_OF_ASC_NODE":"16.0138","PERIOD":"95.592","FILE":"3573088","OBJECT_TYPE":"PAYLOAD","INCLINATION":"53.0560","LAUNCH_DATE":"2021-01-20","TLE_LINE2":"2 47373  53.0560  16.0138 0001387  72.5665 287.5476 15.06399420 91181","EPHEMERIS_TYPE":"0","GP_ID":"212535393","EPOCH":"2022-09-13T18:15:27.478080","MEAN_MOTION_DDOT":"0.0000000000000","CENTER_NAME":"EARTH","SITE":"AFETR","TLE_LINE1":"1 47373U 21005AA  22256.76073470  .00000232  00000-0  34500-4 0  9996","OBJECT_ID":"2021-005AA","COUNTRY_CODE":"US","NORAD_CAT_ID":"47373","MEAN_MOTION_DOT":"0.00000232","APOAPSIS":"548.176"},{"NORAD_CAT_ID":"47374","APOAPSIS":"547.961","MEAN_MOTION_DOT":"0.00002473","COUNTRY_CODE":"US","OBJECT_ID":"2021-005AB","TLE_LINE1":"1 47374U 21005AB  22256.84825628  .00002473  00000-0  18484-3 0  9997","SITE":"AFETR","MEAN_MOTION_DDOT":"0.0000000000000","EPOCH":"2022-09-13T20:21:29.342592","CENTER_NAME":"EARTH","EPHEMERIS_TYPE":"0","GP_ID":"212534144","TLE_LINE2":"2 47374  53.0557  15.6127 0001098 112.5239 247.5866 15.06404111 91196","INCLINATION":"53.0557","LAUNCH_DATE":"2021-01-20","PERIOD":"95.592","OBJECT_TYPE":"PAYLOAD","FILE":"3573088","RA_OF_ASC_NODE":"15.6127","MEAN_ANOMALY":"247.5866","CLASSIFICATION_TYPE":"U","MEAN_ELEMENT_THEORY":"SGP4","RCS_SIZE":"LARGE","ECCENTRICITY":"0.00010980","ELEMENT_SET_NO":"999","ARG_OF_PERICENTER":"112.5239","REV_AT_EPOCH":"9119","PERIAPSIS":"546.441","MEAN_MOTION":"15.06404111","SEMIMAJOR_AXIS":"6925.336","REF_FRAME":"TEME","BSTAR":"0.00018484000000","OBJECT_NAME":"STARLINK-2093","DECAY_DATE":null,"TIME_SYSTEM":"UTC"},{"ARG_OF_PERICENTER":"82.8354","ELEMENT_SET_NO":"999","ECCENTRICITY":"0.00013950","REV_AT_EPOCH":"9117","PERIAPSIS":"546.255","MEAN_MOTION":"15.06397684","OBJECT_NAME":"STARLINK-2094","SEMIMAJOR_AXIS":"6925.356","BSTAR":"0.00015967000000","REF_FRAME":"TEME","TIME_SYSTEM":"UTC","DECAY_DATE":null,"MEAN_ELEMENT_THEORY":"SGP4","RCS_SIZE":"LARGE","RA_OF_ASC_NODE":"16.1981","MEAN_ANOMALY":"277.2793","CLASSIFICATION_TYPE":"U","INCLINATION":"53.0553","LAUNCH_DATE":"2021-01-20","PERIOD":"95.592","FILE":"3573088","OBJECT_TYPE":"PAYLOAD","TLE_LINE2":"2 47375  53.0553  16.1981 0001395  82.8354 277.2793 15.06397684 91177","MEAN_MOTION_DDOT":"0.0000000000000","EPOCH":"2022-09-13T17:17:04.632000","CENTER_NAME":"EARTH","EPHEMERIS_TYPE":"0","GP_ID":"212533894","OBJECT_ID":"2021-005AC","TLE_LINE1":"1 47375U 21005AC  22256.72019250  .00002097  00000-0  15967-3 0  9996","SITE":"AFETR","NORAD_CAT_ID":"47375","MEAN_MOTION_DOT":"0.00002097","APOAPSIS":"548.187","COUNTRY_CODE":"US"},{"TIME_SYSTEM":"UTC","DECAY_DATE":null,"SEMIMAJOR_AXIS":"6925.353","REF_FRAME":"TEME","BSTAR":"0.00018276000000","OBJECT_NAME":"STARLINK-2096","MEAN_MOTION":"15.06398639","PERIAPSIS":"546.243","REV_AT_EPOCH":"9117","ELEMENT_SET_NO":"999","ARG_OF_PERICENTER":"80.2585","ECCENTRICITY":"0.00014070","RCS_SIZE":"LARGE","MEAN_ELEMENT_THEORY":"SGP4","CLASSIFICATION_TYPE":"U","MEAN_ANOMALY":"279.8563","RA_OF_ASC_NODE":"16.1846","FILE":"3573088","OBJECT_TYPE":"PAYLOAD","PERIOD":"95.592","LAUNCH_DATE":"2021-01-20","INCLINATION":"53.0555","TLE_LINE2":"2 47376  53.0555  16.1846 0001407  80.2585 279.8563 15.06398639 91176","GP_ID":"212535146","EPHEMERIS_TYPE":"0","CENTER_NAME":"EARTH","MEAN_MOTION_DDOT":"0.0000000000000","EPOCH":"2022-09-13T17:22:22.874304","SITE":"AFETR","TLE_LINE1":"1 47376U 21005AD  22256.72387586  .00002442  00000-0  18276-3 0  9997","OBJECT_ID":"2021-005AD","COUNTRY_CODE":"US","MEAN_MOTION_DOT":"0.00002442","APOAPSIS":"548.192","NORAD_CAT_ID":"47376"},{"EPHEMERIS_TYPE":"0","GP_ID":"212534893","MEAN_MOTION_DDOT":"0.0000000000000","EPOCH":"2022-09-13T15:25:36.786432","CENTER_NAME":"EARTH","TLE_LINE2":"2 47377  53.0554  16.5513 0001284  89.0176 271.0960 15.06397808 91168","COUNTRY_CODE":"US","NORAD_CAT_ID":"47377","APOAPSIS":"548.109","MEAN_MOTION_DOT":"-0.00000413","TLE_LINE1":"1 47377U 21005AE  22256.64278688 -.00000413  00000-0 -88512-5 0  9991","SITE":"AFETR","OBJECT_ID":"2021-005AE","RCS_SIZE":"LARGE","MEAN_ELEMENT_THEORY":"SGP4","MEAN_MOTION":"15.06397808","BSTAR":"-0.00000885120000","SEMIMAJOR_AXIS":"6925.355","REF_FRAME":"TEME","OBJECT_NAME":"STARLINK-2097","TIME_SYSTEM":"UTC","DECAY_DATE":null,"ECCENTRICITY":"0.00012840","ELEMENT_SET_NO":"999","ARG_OF_PERICENTER":"89.0176","REV_AT_EPOCH":"9116","PERIAPSIS":"546.331","PERIOD":"95.592","OBJECT_TYPE":"PAYLOAD","FILE":"3573088","INCLINATION":"53.0554","LAUNCH_DATE":"2021-01-20","MEAN_ANOMALY":"271.0960","CLASSIFICATION_TYPE":"U","RA_OF_ASC_NODE":"16.5513"},{"RCS_SIZE":"LARGE","MEAN_ELEMENT_THEORY":"SGP4","TIME_SYSTEM":"UTC","DECAY_DATE":null,"REF_FRAME":"TEME","SEMIMAJOR_AXIS":"6925.346","BSTAR":"0.00009262600000","OBJECT_NAME":"STARLINK-2098","MEAN_MOTION":"15.06400985","PERIAPSIS":"546.420","REV_AT_EPOCH":"9172","ELEMENT_SET_NO":"999","ARG_OF_PERICENTER":"87.7931","ECCENTRICITY":"0.00011420","FILE":"3573088","OBJECT_TYPE":"PAYLOAD","PERIOD":"95.592","LAUNCH_DATE":"2021-01-20","INCLINATION":"53.0551","CLASSIFICATION_TYPE":"U","MEAN_ANOMALY":"272.3189","RA_OF_ASC_NODE":"336.5941","GP_ID":"212533644","EPHEMERIS_TYPE":"0","CENTER_NAME":"EARTH","MEAN_MOTION_DDOT":"0.0000000000000","EPOCH":"2022-09-13T15:14:59.919936","TLE_LINE2":"2 47378  53.0551 336.5941 0001142  87.7931 272.3189 15.06400985 91723","COUNTRY_CODE":"US","APOAPSIS":"548.001","MEAN_MOTION_DOT":"0.00001099","NORAD_CAT_ID":"47378","TLE_LINE1":"1 47378U 21005AF  22256.63541574  .00001099  00000-0  92626-4 0  9997","SITE":"AFETR","OBJECT_ID":"2021-005AF"},{"RCS_SIZE":"LARGE","MEAN_ELEMENT_THEORY":"SGP4","BSTAR":"0.00040877000000","SEMIMAJOR_AXIS":"6925.320","OBJECT_NAME":"STARLINK-2099","REF_FRAME":"TEME","DECAY_DATE":null,"TIME_SYSTEM":"UTC","MEAN_MOTION":"15.06409191","PERIAPSIS":"546.250","ARG_OF_PERICENTER":"71.1528","ELEMENT_SET_NO":"999","ECCENTRICITY":"0.00013510","REV_AT_EPOCH":"9170","OBJECT_TYPE":"PAYLOAD","FILE":"3571951","PERIOD":"95.592","LAUNCH_DATE":"2021-01-20","INCLINATION":"53.0543","CLASSIFICATION_TYPE":"U","MEAN_ANOMALY":"288.9607","RA_OF_ASC_NODE":"337.1582","GP_ID":"212463365","EPHEMERIS_TYPE":"0","MEAN_MOTION_DDOT":"0.0000000000000","EPOCH":"2022-09-13T12:14:32.339328","CENTER_NAME":"EARTH","TLE_LINE2":"2 47379  53.0543 337.1582 0001351  71.1528 288.9607 15.06409191 91708","COUNTRY_CODE":"US","MEAN_MOTION_DOT":"0.00005814","APOAPSIS":"548.121","NORAD_CAT_ID":"47379","TLE_LINE1":"1 47379U 21005AG  22256.51009652  .00005814  00000-0  40877-3 0  9990","SITE":"AFETR","OBJECT_ID":"2021-005AG"},{"INCLINATION":"53.0567","LAUNCH_DATE":"2021-01-20","PERIOD":"95.592","FILE":"3573088","OBJECT_TYPE":"PAYLOAD","RA_OF_ASC_NODE":"346.4120","MEAN_ANOMALY":"291.7163","CLASSIFICATION_TYPE":"U","MEAN_ELEMENT_THEORY":"SGP4","RCS_SIZE":"LARGE","REV_AT_EPOCH":"9159","ECCENTRICITY":"0.00011440","ELEMENT_SET_NO":"999","ARG_OF_PERICENTER":"68.3948","PERIAPSIS":"546.427","MEAN_MOTION":"15.06398247","TIME_SYSTEM":"UTC","DECAY_DATE":null,"REF_FRAME":"TEME","SEMIMAJOR_AXIS":"6925.354","BSTAR":"0.00017403000000","OBJECT_NAME":"STARLINK-2100","NORAD_CAT_ID":"47380","APOAPSIS":"548.011","MEAN_MOTION_DOT":"0.00002312","COUNTRY_CODE":"US","OBJECT_ID":"2021-005AH","TLE_LINE1":"1 47380U 21005AH  22256.67135329  .00002312  00000-0  17403-3 0  9999","SITE":"AFETR","CENTER_NAME":"EARTH","MEAN_MOTION_DDOT":"0.0000000000000","EPOCH":"2022-09-13T16:06:44.924256","EPHEMERIS_TYPE":"0","GP_ID":"212534646","TLE_LINE2":"2 47380  53.0567 346.4120 0001144  68.3948 291.7163 15.06398247 91596"},{"COUNTRY_CODE":"US","NORAD_CAT_ID":"47381","APOAPSIS":"548.078","MEAN_MOTION_DOT":"0.00000923","TLE_LINE1":"1 47381U 21005AJ  22256.68749014  .00000923  00000-0  80870-4 0  9998","SITE":"AFETR","OBJECT_ID":"2021-005AJ","EPHEMERIS_TYPE":"0","GP_ID":"212535394","MEAN_MOTION_DDOT":"0.0000000000000","EPOCH":"2022-09-13T16:29:59.148096","CENTER_NAME":"EARTH","TLE_LINE2":"2 47381  53.0555 351.4280 0001250  80.7024 279.4106 15.06400331 91529","PERIOD":"95.592","OBJECT_TYPE":"PAYLOAD","FILE":"3573088","INCLINATION":"53.0555","LAUNCH_DATE":"2021-01-20","MEAN_ANOMALY":"279.4106","CLASSIFICATION_TYPE":"U","RA_OF_ASC_NODE":"351.4280","RCS_SIZE":"LARGE","MEAN_ELEMENT_THEORY":"SGP4","MEAN_MOTION":"15.06400331","SEMIMAJOR_AXIS":"6925.348","OBJECT_NAME":"STARLINK-2101","BSTAR":"0.00008087000000","REF_FRAME":"TEME","TIME_SYSTEM":"UTC","DECAY_DATE":null,"ECCENTRICITY":"0.00012500","ELEMENT_SET_NO":"999","ARG_OF_PERICENTER":"80.7024","REV_AT_EPOCH":"9152","PERIAPSIS":"546.347"},{"INCLINATION":"53.0551","LAUNCH_DATE":"2021-01-20","PERIOD":"95.592","OBJECT_TYPE":"PAYLOAD","FILE":"3572069","RA_OF_ASC_NODE":"347.0576","MEAN_ANOMALY":"279.5534","CLASSIFICATION_TYPE":"U","MEAN_ELEMENT_THEORY":"SGP4","RCS_SIZE":"LARGE","REV_AT_EPOCH":"9156","ELEMENT_SET_NO":"999","ECCENTRICITY":"0.00012030","ARG_OF_PERICENTER":"80.5591","PERIAPSIS":"546.378","MEAN_MOTION":"15.06400788","DECAY_DATE":null,"TIME_SYSTEM":"UTC","SEMIMAJOR_AXIS":"6925.346","REF_FRAME":"TEME","BSTAR":"0.00011960000000","OBJECT_NAME":"STARLINK-2102","NORAD_CAT_ID":"47382","MEAN_MOTION_DOT":"0.00001501","APOAPSIS":"548.044","COUNTRY_CODE":"US","OBJECT_ID":"2021-005AK","SITE":"AFETR","TLE_LINE1":"1 47382U 21005AK  22256.53128963  .00001501  00000-0  11960-3 0  9993","CENTER_NAME":"EARTH","MEAN_MOTION_DDOT":"0.0000000000000","EPOCH":"2022-09-13T12:45:03.424032","EPHEMERIS_TYPE":"0","GP_ID":"212487133","TLE_LINE2":"2 47382  53.0551 347.0576 0001203  80.5591 279.5534 15.06400788 91566"}];
